[{"OBJECT_NAME":"STARLINK-32551","OBJECT_ID":"2024-225D","EPOCH":"2026-03-09T16:03:04.945536","MEAN_MOTION":14.98326828,"ECCENTRICITY":0.00026635,"INCLINATION":70.0041,"RA_OF_ASC_NODE":164.4454,"ARG_OF_PERICENTER":277.7203,"MEAN_ANOMALY":82.3654,"EPHEMERIS_TYPE":0,"CLASSIFICATION_TYPE":"U","NORAD_CAT_ID":62166,"ELEMENT_SET_NO":999,"REV_AT_EPOCH":6987,"BSTAR":0.00042814672,"MEAN_MOTION_DOT":5.019e-5,"MEAN_MOTION_DDOT":0},{"OBJECT_NAME":"CZ-2D R\/B","OBJECT_ID":"2025-222C","EPOCH":"2026-03-09T11:30:40.430304","MEAN_MOTION":15.00214245,"ECCENTRICITY":0.0055472,"INCLINATION":34.9016,"RA_OF_ASC_NODE":128.5538,"ARG_OF_PERICENTER":301.6169,"MEAN_ANOMALY":57.9132,"EPHEMERIS_TYPE":0,"CLASSIFICATION_TYPE":"U","NORAD_CAT_ID":65853,"ELEMENT_SET_NO":999,"REV_AT_EPOCH":2424,"BSTAR":0.00024152549,"MEAN_MOTION_DOT":3.158e-5,"MEAN_MOTION_DDOT":0}]
